[{"OBJECT_NAME":"MONITOR-4 (RS57S)","OBJECT_ID":"2023-091S","EPOCH":"2026-03-09T23:02:36.101184","MEAN_MOTION":15.25833519,"ECCENTRICITY":0.00137053,"INCLINATION":97.5193,"RA_OF_ASC_NODE":131.7407,"ARG_OF_PERICENTER":91.587,"MEAN_ANOMALY":268.6938,"EPHEMERIS_TYPE":0,"CLASSIFICATION_TYPE":"U","NORAD_CAT_ID":57182,"ELEMENT_SET_NO":999,"REV_AT_EPOCH":14915,"BSTAR":0.00052093098,"MEAN_MOTION_DOT":0.000133,"MEAN_MOTION_DDOT":0},{"OBJECT_NAME":"STARLINK-33712","OBJECT_ID":"2025-091Y","EPOCH":"2026-03-09T09:08:19.632192","MEAN_MOTION":15.27606334,"ECCENTRICITY":0.00014029,"INCLINATION":43.0012,"RA_OF_ASC_NODE":57.9029,"ARG_OF_PERICENTER":242.4408,"MEAN_ANOMALY":117.6301,"EPHEMERIS_TYPE":0,"CLASSIFICATION_TYPE":"U","NORAD_CAT_ID":63797,"ELEMENT_SET_NO":999,"REV_AT_EPOCH":4881,"BSTAR":0.0012585152,"MEAN_MOTION_DOT":0.0003456,"MEAN_MOTION_DDOT":0}]
